COSMOS 2058             
1 20465U 90010A   26203.73738463  .00002588  00000+0  14822-3 0  9993
2 20465  82.4676 274.2930 0008657 219.7393 140.3204 15.12189302962642
SL-14 R/B               
1 20466U 90010B   26203.30548280  .00000295  00000+0  32715-4 0  9998
2 20466  82.5041 140.9663 0018841 212.4235 147.5824 14.83666097948440
SL-14 R/B               
1 20511U 90018B   26203.92544232  .00000294  00000+0  33796-4 0  9997
2 20511  82.5212  96.7045 0016418  12.4851 347.6766 14.82237643942614
HST                     
1 20580U 90037B   26203.21405009  .00005689  00000+0  17638-3 0  9993
2 20580  28.4723 201.1073 0002035 171.5650 188.4980 15.31110914793948
SL-16 R/B               
1 20625U 90046B   26203.71793208  .00000236  00000+0  14623-3 0  9993
2 20625  71.0000  14.3229 0012163 100.8725 259.3767 14.15029521867495
COSMOS 2084             
1 20663U 90055A   26203.51421994  .00001197  00000+0  94928-4 0  9997
2 20663  62.7873 235.5018 0009040 324.3695  35.6801 15.06240926956627
SL-6 R/B(2)             
1 20666U 90055D   26203.81816717  .00001895  00000+0  14770-3 0  9995
2 20666  62.7813 154.1168 0046297  10.0659 350.1356 15.04112929958519
SL-8 R/B                
1 20775U 90078B   26203.51102816  .00010518  00000+0  29840-3 0  9992
2 20775  82.9030 129.6866 0342721 278.5985  77.6552 14.93700925829399
SL-8 R/B                
1 21088U 91006B   26203.93672725  .00000103  00000+0  88244-4 0  9992
2 21088  82.9401  69.4348 0022956  19.5860 358.3604 13.77510519782692
OKEAN-3                 
1 21397U 91039A   26203.43391163  .00002029  00000+0  13908-3 0  9993
2 21397  82.5152 206.1974 0013086 226.5877 133.4262 15.05462669885300
COSMOS 2151             
1 21422U 91042A   26203.87050892  .00001226  00000+0  95076-4 0  9990
2 21422  82.4983 313.2445 0011295 328.3979  31.6566 15.00529365883460
SL-14 R/B               
1 21423U 91042B   26203.93962034  .00000265  00000+0  30391-4 0  9999
2 21423  82.4927  93.3685 0017643 152.0139 208.2028 14.81921203873104
ERS-1                   
1 21574U 91050A   26203.05744042  .00000284  00000+0  10530-3 0  9998
2 21574  98.7797 224.6069 0032358 161.6345 198.6018 14.39537071835069
ARIANE 40 R/B           
1 21610U 91050F   26203.89893005  .00000205  00000+0  73698-4 0  9993
2 21610  98.1857 250.9212 0003779  43.9834 316.1657 14.42975007838498
INTERCOSMOS 25          
1 21819U 91086A   26203.52225288  .00001085  00000+0  21045-3 0  9990
2 21819  82.5999 228.4272 1484912 186.1180 171.9800 12.12247816513027
SL-8 R/B                
1 21876U 92008B   26203.33910613  .00000143  00000+0  13043-3 0  9993
2 21876  82.9281 167.6527 0035984 117.2682  35.5369 13.75985176727937
SL-8 R/B                
1 21938U 92020B   26203.83259919 -.00000012  00000+0 -28287-4 0  9990
2 21938  82.9274  53.3750 0027764 281.2408  94.5837 13.75549730719716
USA 81                  
1 21949U 92023A   26203.83157022  .00000120  00000+0  36954-4 0  9995
2 21949  85.0047  53.4283 0001635  65.3782 294.7581 14.32406297114136
COSMOS 2219             
1 22219U 92076A   26203.13478088 -.00000287  00000+0 -12577-3 0  9995
2 22219  71.0605  97.0173 0018666 347.1838  12.8807 14.14105971737382
SL-16 R/B               
1 22220U 92076B   26203.63062057 -.00000237  00000+0 -93930-4 0  9995
2 22220  70.9993 264.1188 0015005 252.6051 264.6964 14.16877154740944
COSMOS 2221             
1 22236U 92080A   26203.90960817  .00001427  00000+0  12265-3 0  9999
2 22236  82.5053 149.5402 0015958  96.7620 263.5418 14.96620938801010
SL-16 R/B               
1 22285U 92093B   26203.64780154 -.00000157  00000+0 -56207-4 0  9998
2 22285  71.0210  80.9502 0002182 113.1691 246.9662 14.15463235732259
COSMOS 2228             
1 22286U 92094A   26203.89960711  .00001317  00000+0  10991-3 0  9992
2 22286  82.5184 107.8352 0016899 201.5968 158.4544 14.97692001796293
SL-16 R/B               
1 22566U 93016B   26203.63162851  .00000217  00000+0  13595-3 0  9990
2 22566  71.0086 291.7622 0008438 124.6317 235.5602 14.15317130721268
COSMOS 2242             
1 22626U 93024A   26203.27389335  .00001282  00000+0  10891-3 0  9993
2 22626  82.5203 137.9749 0015174 207.1557 152.8874 14.96999842800526
SL-16 R/B               
1 22803U 93059B   26203.92119420  .00000221  00000+0  13291-3 0  9995
2 22803  70.9902  85.9480 0017131 356.8929   3.2085 14.17251421698697
ARIANE 40 R/B           
1 22830U 93061H   26203.88744085  .00000117  00000+0  58650-4 0  9997
2 22830  98.4800 269.9997 0009678 240.3019 119.7203 14.32920625713464
COSMOS 2278             
1 23087U 94023A   26203.89120956  .00000277  00000+0  16905-3 0  9990
2 23087  71.0514 252.2236 0009205 194.2847 165.8017 14.14396151663922
SL-16 R/B               
1 23088U 94023B   26203.24078866  .00000346  00000+0  20312-3 0  9996
2 23088  70.9999 148.3157 0001222  99.1016 261.0245 14.15028693665127
SL-16 R/B               
1 23343U 94074B   26203.81069186  .00000303  00000+0  47076-4 0  9994
2 23343  97.6984 229.0456 0007664 132.4118  44.8921 14.79528900707222
