OBJECT_NAME,OBJECT_ID,EPOCH,MEAN_MOTION,ECCENTRICITY,INCLINATION,RA_OF_ASC_NODE,ARG_OF_PERICENTER,MEAN_ANOMALY,EPHEMERIS_TYPE,CLASSIFICATION_TYPE,NORAD_CAT_ID,ELEMENT_SET_NO,REV_AT_EPOCH,BSTAR,MEAN_MOTION_DOT,MEAN_MOTION_DDOT
COSMOS 2058,1990-010A,2026-07-22T17:41:50.032032,15.12189302,.0008657,82.4676,274.2930,219.7393,140.3204,0,U,20465,999,96264,.14822308E-3,.2588E-4,0
SL-14 R/B,1990-010B,2026-07-22T07:19:53.713920,14.83666097,.00188415,82.5041,140.9663,212.4235,147.5824,0,U,20466,999,94844,.32715078E-4,.295E-5,0
SL-14 R/B,1990-018B,2026-07-22T22:12:38.216448,14.82237643,.0016418,82.5212,96.7045,12.4851,347.6766,0,U,20511,999,94261,.33796179E-4,.294E-5,0
HST,1990-037B,2026-07-22T05:08:13.927776,15.31110914,.00020355,28.4723,201.1073,171.5650,188.4980,0,U,20580,999,79394,.17637821E-3,.5689E-4,0
SL-16 R/B,1990-046B,2026-07-22T17:13:49.331712,14.15029521,.00121639,71.0000,14.3229,100.8725,259.3767,0,U,20625,999,86749,.14622999E-3,.236E-5,0
COSMOS 2084,1990-055A,2026-07-22T12:20:28.602816,15.06240926,.00090403,62.7873,235.5018,324.3695,35.6801,0,U,20663,999,95662,.94928076E-4,.1197E-4,0
SL-6 R/B(2),1990-055D,2026-07-22T19:38:09.643488,15.04112929,.00462974,62.7813,154.1168,10.0659,350.1356,0,U,20666,999,95851,.14769511E-3,.1895E-4,0
SL-8 R/B,1990-078B,2026-07-22T12:15:52.833024,14.93700925,.03427217,82.9030,129.6866,278.5985,77.6552,0,U,20775,999,82939,.29839876E-3,.10518E-3,0
SL-8 R/B,1991-006B,2026-07-22T22:28:53.234400,13.77510519,.00229567,82.9401,69.4348,19.5860,358.3604,0,U,21088,999,78269,.88244024E-4,.103E-5,0
OKEAN-3,1991-039A,2026-07-22T10:24:49.964832,15.05462669,.00130862,82.5152,206.1974,226.5877,133.4262,0,U,21397,999,88530,.13907923E-3,.2029E-4,0
COSMOS 2151,1991-042A,2026-07-22T20:53:31.970688,15.00529365,.00112957,82.4983,313.2445,328.3979,31.6566,0,U,21422,999,88346,.95075625E-4,.1226E-4,0
SL-14 R/B,1991-042B,2026-07-22T22:33:03.197376,14.81921203,.00176433,82.4927,93.3685,152.0139,208.2028,0,U,21423,999,87310,.3039067E-4,.265E-5,0
ERS-1,1991-050A,2026-07-22T01:22:42.852288,14.39537071,.00323586,98.7797,224.6069,161.6345,198.6018,0,U,21574,999,83506,.10529695E-3,.284E-5,0
ARIANE 40 R/B,1991-050F,2026-07-22T21:34:27.556320,14.42975007,.00037799,98.1857,250.9212,43.9834,316.1657,0,U,21610,999,83849,.73697969E-4,.205E-5,0
INTERCOSMOS 25,1991-086A,2026-07-22T12:32:02.648832,12.12247816,.14849122,82.5999,228.4272,186.1180,171.9800,0,U,21819,999,51302,.2104502E-3,.1085E-4,0
SL-8 R/B,1992-008B,2026-07-22T08:08:18.769632,13.75985176,.00359845,82.9281,167.6527,117.2682,35.5369,0,U,21876,999,72793,.13042696E-3,.143E-5,0
SL-8 R/B,1992-020B,2026-07-22T19:58:56.570016,13.75549730,.0027764,82.9274,53.3750,281.2408,94.5837,0,U,21938,999,71971,-.28287334E-4,-.12E-6,0
USA 81,1992-023A,2026-07-22T19:57:27.667008,14.32406297,.00016354,85.0047,53.4283,65.3782,294.7581,0,U,21949,999,11413,.36954461E-4,.12E-5,0
COSMOS 2219,1992-076A,2026-07-22T03:14:05.068032,14.14105971,.00186664,71.0605,97.0173,347.1838,12.8807,0,U,22219,999,73738,-.1257726E-3,-.287E-5,0
SL-16 R/B,1992-076B,2026-07-22T15:08:05.617248,14.16877154,.00150054,70.9993,264.1188,252.6051,264.6964,0,U,22220,999,74094,-.93930222E-4,-.237E-5,0
COSMOS 2221,1992-080A,2026-07-22T21:49:50.145888,14.96620938,.00159588,82.5053,149.5402,96.7620,263.5418,0,U,22236,999,80101,.12265282E-3,.1427E-4,0
SL-16 R/B,1992-093B,2026-07-22T15:32:50.053056,14.15463235,.00021823,71.0210,80.9502,113.1691,246.9662,0,U,22285,999,73225,-.56207439E-4,-.157E-5,0
COSMOS 2228,1992-094A,2026-07-22T21:35:26.054304,14.97692001,.00168999,82.5184,107.8352,201.5968,158.4544,0,U,22286,999,79629,.10990507E-3,.1317E-4,0
SL-16 R/B,1993-016B,2026-07-22T15:09:32.703264,14.15317130,.00084382,71.0086,291.7622,124.6317,235.5602,0,U,22566,999,72126,.13595143E-3,.217E-5,0
COSMOS 2242,1993-024A,2026-07-22T06:34:24.385440,14.96999842,.00151744,82.5203,137.9749,207.1557,152.8874,0,U,22626,999,80052,.10890541E-3,.1282E-4,0
SL-16 R/B,1993-059B,2026-07-22T22:06:31.178880,14.17251421,.00171315,70.9902,85.9480,356.8929,3.2085,0,U,22803,999,69869,.13291133E-3,.221E-5,0
ARIANE 40 R/B,1993-061H,2026-07-22T21:17:54.889440,14.32920625,.0009678,98.4800,269.9997,240.3019,119.7203,0,U,22830,999,71346,.58649967E-4,.117E-5,0
COSMOS 2278,1994-023A,2026-07-22T21:23:20.505984,14.14396151,.00092057,71.0514,252.2236,194.2847,165.8017,0,U,23087,999,66392,.16905246E-3,.277E-5,0
SL-16 R/B,1994-023B,2026-07-22T05:46:44.140224,14.15028693,.00012226,70.9999,148.3157,99.1016,261.0245,0,U,23088,999,66512,.20312171E-3,.346E-5,0
SL-16 R/B,1994-074B,2026-07-22T19:27:23.776704,14.79528900,.00076642,97.6984,229.0456,132.4118,44.8921,0,U,23343,999,70722,.47076286E-4,.303E-5,0
